*******************************************************************************
 Revised: April 12, 2021                Venus                           299 / 2
 
 PHYSICAL DATA (updated 2020-Oct-19):
  Vol. Mean Radius (km) =  6051.84+-0.01 Density (g/cm^3)      =  5.204
  Mass x10^23 (kg)      =    48.685      Volume (x10^10 km^3)  = 92.843
  Sidereal rot. period  =   243.018484 d Sid. Rot. Rate (rad/s)= -0.00000029924
  Mean solar day        =   116.7490 d   Equ. gravity  m/s^2   =  8.870
  Mom. of Inertia       =     0.33       Core radius (km)      = ~3200
  Geometric Albedo      =     0.65       Potential Love # k2   = ~0.25
  GM (km^3/s^2)         = 324858.592     Equatorial Radius, Re = 6051.893 km
  GM 1-sigma (km^3/s^2) =    +-0.006     Mass ratio (Sun/Venus)= 408523.72
  Atmos. pressure (bar) =  90            Max. angular diam.    =   60.2"
  Mean Temperature (K)  = 735            Visual mag. V(1,0)    =   -4.40
  Obliquity to orbit    = 177.3 deg      Hill's sphere rad.,Rp =  167.1
  Sidereal orb. per., y =   0.61519726   Orbit speed, km/s     =   35.021
  Sidereal orb. per., d = 224.70079922   Escape speed, km/s    =   10.361
                                 Perihelion  Aphelion    Mean
  Solar Constant (W/m^2)         2759         2614       2650
  Maximum Planetary IR (W/m^2)    153         153         153
  Minimum Planetary IR (W/m^2)    153         153         153
*******************************************************************************


*******************************************************************************
Ephemeris / WWW_USER Tue Dec 23 07:12:36 2025 Pasadena, USA      / Horizons
*******************************************************************************
Target body name: Venus (299)                     {source: DE441}
Center body name: Solar System Barycenter (0)     {source: DE441}
Center-site name: BODY CENTER
*******************************************************************************
Start time      : A.D. 2006-Jun-30 00:00:00.0000 TDB
Stop  time      : A.D. 2025-Dec-23 00:00:00.0000 TDB
Step-size       : 1440 minutes
*******************************************************************************
Center geodetic : 0.0, 0.0, 0.0                   {E-lon(deg),Lat(deg),Alt(km)}
Center cylindric: 0.0, 0.0, 0.0                   {E-lon(deg),Dxy(km),Dz(km)}
Center radii    : (undefined)
Output units    : AU-D
Calendar mode   : Mixed Julian/Gregorian
Output type     : GEOMETRIC cartesian states
Output format   : 2x (pos. & vel. w/uncertainties: XYZ)
Reference frame : Ecliptic of J2000.0
*******************************************************************************
            JDTDB             Calendar Date (TDB),                      X,                      Y,                      Z,                     VX,                     VY,                     VZ,             X_s,             Y_s,             Z_s,            VX_s,            VY_s,            VZ_s,
********************************************************************************************************************************************************************************************************************************************************************************************************
$$SOE
2457040.500000000, A.D. 2015-Jan-18 00:00:00.0000,  7.075283307831892E-01, -1.758822907891775E-01, -4.320182643184708E-02,  4.779066700404114E-03,  1.954490781031027E-02, -7.865585832423057E-06,            n.a.,            n.a.,            n.a.,            n.a.,            n.a.,            n.a.,
2457041.500000000, A.D. 2015-Jan-19 00:00:00.0000,  7.120358189669530E-01, -1.562725440006681E-01, -4.319313096255777E-02,  4.235302593986384E-03,  1.967207941224389E-02,  2.525720652057224E-05,            n.a.,            n.a.,            n.a.,            n.a.,            n.a.,            n.a.,
2457042.500000000, A.D. 2015-Jan-20 00:00:00.0000,  7.159977901526809E-01, -1.365431618075492E-01, -4.315131483258385E-02,  3.688101134441506E-03,  1.978416184934360E-02,  5.837155662108899E-05,            n.a.,            n.a.,            n.a.,            n.a.,            n.a.,            n.a.,
2457043.500000000, A.D. 2015-Jan-21 00:00:00.0000,  7.194110127754927E-01, -1.167092818616227E-01, -4.307639902466387E-02,  3.137874387051986E-03,  1.988105997446496E-02,  9.145238032876390E-05,            n.a.,            n.a.,            n.a.,            n.a.,            n.a.,            n.a.,
2457044.500000000, A.D. 2015-Jan-22 00:00:00.0000,  7.222726687563386E-01, -9.678613146574641E-02, -4.296842961232210E-02,  2.585037212266235E-03,  1.996268964815484E-02,  1.244745830755652E-04,            n.a.,            n.a.,            n.a.,            n.a.,            n.a.,            n.a.,
2457045.500000000, A.D. 2015-Jan-23 00:00:00.0000,  7.245803561588151E-01, -7.678901652060167E-02, -4.282747776168876E-02,  2.030006988441679E-03,  2.002897782872795E-02,  1.574130770986892E-04,            n.a.,            n.a.,            n.a.,            n.a.,            n.a.,            n.a.,
2457046.500000000, A.D. 2015-Jan-24 00:00:00.0000,  7.263320915670695E-01, -5.673331038442635E-02, -4.265363971603388E-02,  1.473203331291988E-03,  2.007986265623398E-02,  1.902427987800910E-04,            n.a.,            n.a.,            n.a.,            n.a.,            n.a.,            n.a.,
2457047.500000000, A.D. 2015-Jan-25 00:00:00.0000,  7.275263121815346E-01, -3.663444265189451E-02, -4.244703676291041E-02,  9.150478101170343E-04,  2.011529353017628E-02,  2.229387260862921E-04,            n.a.,            n.a.,            n.a.,            n.a.,            n.a.,            n.a.,
2457048.500000000, A.D. 2015-Jan-26 00:00:00.0000,  7.281618776293223E-01, -1.650788785845913E-02, -4.220781518381081E-02,  3.559636609013839E-04,  2.013523118084186E-02,  2.554758961015223E-04,            n.a.,            n.a.,            n.a.,            n.a.,            n.a.,            n.a.,
2457049.500000000, A.D. 2015-Jan-27 00:00:00.0000,  7.282380714861868E-01,  3.630845883381144E-03, -4.193614618624648E-02, -2.036245036256769E-04,  2.013964773410060E-02,  2.878294226469405E-04,            n.a.,            n.a.,            n.a.,            n.a.,            n.a.,            n.a.,
2457050.500000000, A.D. 2015-Jan-28 00:00:00.0000,  7.277546025070715E-01,  2.376622830928988E-02, -4.163222581816829E-02, -7.632909868682677E-04,  2.012852676953094E-02,  3.199745139781190E-04,            n.a.,            n.a.,            n.a.,            n.a.,            n.a.,            n.a.,
2457051.500000000, A.D. 2015-Jan-29 00:00:00.0000,  7.267116055623515E-01,  4.388271848302947E-02, -4.129627486465384E-02, -1.322609304072707E-03,  2.010186337172747E-02,  3.518864905526575E-04,            n.a.,            n.a.,            n.a.,            n.a.,            n.a.,            n.a.,
2457052.500000000, A.D. 2015-Jan-30 00:00:00.0000,  7.251096422770010E-01,  6.396477632423558E-02, -4.092853872679570E-02, -1.881152480752217E-03,  2.005966417464484E-02,  3.835408028592640E-04,            n.a.,            n.a.,            n.a.,            n.a.,            n.a.,            n.a.,
2457053.500000000, A.D. 2015-Jan-31 00:00:00.0000,  7.229497013700279E-01,  8.399687417699270E-02, -4.052928728273346E-02, -2.438493353705563E-03,  2.000194739883114E-02,  4.149130492992467E-04,            n.a.,            n.a.,            n.a.,            n.a.,            n.a.,            n.a.,
2457054.500000000, A.D. 2015-Feb-01 00:00:00.0000,  7.202331986916463E-01,  1.039635084120258E-01, -4.009881473078211E-02, -2.994204874500406E-03,  1.992874288140226E-02,  4.459789941109109E-04,            n.a.,            n.a.,            n.a.,            n.a.,            n.a.,            n.a.,
2457055.500000000, A.D. 2015-Feb-02 00:00:00.0000,  7.169619769557898E-01,  1.238492110551747E-01, -3.963743941461876E-02, -3.547860415284922E-03,  1.984009209860788E-02,  4.767145853269147E-04,            n.a.,            n.a.,            n.a.,            n.a.,            n.a.,            n.a.,
2457056.500000000, A.D. 2015-Feb-03 00:00:00.0000,  7.131383051657092E-01,  1.436385614346677E-01, -3.914550363049968E-02, -4.099034076783994E-03,  1.973604818083800E-02,  5.070959727542252E-04,            n.a.,            n.a.,            n.a.,            n.a.,            n.a.,            n.a.,
2457057.500000000, A.D. 2015-Feb-04 00:00:00.0000,  7.087648777305500E-01,  1.633161978395653E-01, -3.862337341649098E-02, -4.647300998310015E-03,  1.961667591994233E-02,  5.370995259649828E-04,            n.a.,            n.a.,            n.a.,            n.a.,            n.a.,            n.a.,
2457058.500000000, A.D. 2015-Feb-05 00:00:00.0000,  7.038448132709703E-01,  1.828668291816180E-01, -3.807143832370706E-02, -5.192237669655057E-03,  1.948205176868930E-02,  5.667018522884059E-04,            n.a.,            n.a.,            n.a.,            n.a.,            n.a.,            n.a.,
2457059.500000000, A.D. 2015-Feb-06 00:00:00.0000,  6.983816531120083E-01,  2.022752466525762E-01, -3.749011116956258E-02, -5.733422244661041E-03,  1.933226383222348E-02,  5.958798147897688E-04,            n.a.,            n.a.,            n.a.,            n.a.,            n.a.,            n.a.,
2457060.500000000, A.D. 2015-Feb-07 00:00:00.0000,  6.923793594616049E-01,  2.215263353689315E-01, -3.687982777305600E-02, -6.270434856310770E-03,  1.916741185141667E-02,  6.246105502261684E-04,            n.a.,            n.a.,            n.a.,            n.a.,            n.a.,            n.a.,
2457061.500000000, A.D. 2015-Feb-08 00:00:00.0000,  6.858423132733611E-01,  2.406050859958630E-01, -3.624104667211497E-02, -6.802857933136563E-03,  1.898760717791829E-02,  6.528714869645476E-04,            n.a.,            n.a.,            n.a.,            n.a.,            n.a.,            n.a.,
